COMMENT,ORIGINATOR,NORAD_CAT_ID,OBJECT_NAME,OBJECT_TYPE,CLASSIFICATION_TYPE,INTLDES,EPOCH,EPOCH_MICROSECONDS,MEAN_MOTION,ECCENTRICITY,INCLINATION,RA_OF_ASC_NODE,ARG_OF_PERICENTER,MEAN_ANOMALY,EPHEMERIS_TYPE,ELEMENT_SET_NO,REV_AT_EPOCH,BSTAR,MEAN_MOTION_DOT,MEAN_MOTION_DDOT,FILE,TLE_LINE0,TLE_LINE1,TLE_LINE2,OBJECT_ID,OBJECT_NUMBER,SEMIMAJOR_AXIS,PERIOD,APOGEE,PERIGEE,DECAYED
"GENERATED VIA SPACETRACK.ORG API","18 SPCS","55091","SPACEBEE-164","PAYLOAD","U","23001CL","2023-12-30 17:25:15","854016","15.29657813","0.0012684","97.4494","63.9118","37.5682","322.6442","0","999","5503","0.00091779","0.00026423","0","4149598","0 SPACEBEE-164","1 55091U 23001CL  23364.72587794  .00026423  00000-0  91779-3 0  9996","2 55091  97.4494  63.9118 0012684  37.5682 322.6442 15.29657813 55032","2023-001CL","55091","6854.971","94.139","485.531","468.142","0"
"GENERATED VIA SPACETRACK.ORG API","18 SPCS","55091","SPACEBEE-164","PAYLOAD","U","23001CL","2023-12-31 16:58:13","821888","15.29705324","0.0012606","97.4494","64.8952","34.63","325.5759","0","999","5518","0.00084877","0.00024458","0","4150356","0 SPACEBEE-164","1 55091U 23001CL  23365.70710442  .00024458  00000-0  84877-3 0  9990","2 55091  97.4494  64.8952 0012606  34.6300 325.5759 15.29705324 55187","2023-001CL","55091","6854.829","94.136","485.336","468.053","0"
"GENERATED VIA SPACETRACK.ORG API","18 SPCS","55091","SPACEBEE-164","PAYLOAD","U","23001CL","2023-12-31 16:58:13","821888","15.29705324","0.0012606","97.4494","64.8952","34.63","325.5759","0","999","5518","0.00084877","0.00024458","0","4150400","0 SPACEBEE-164","1 55091U 23001CL  23365.70710442  .00024458  00000-0  84877-3 0  9990","2 55091  97.4494  64.8952 0012606  34.6300 325.5759 15.29705324 55187","2023-001CL","55091","6854.829","94.136","485.336","468.053","0"
"GENERATED VIA SPACETRACK.ORG API","18 SPCS","55091","SPACEBEE-164","PAYLOAD","U","23001CL","2024-01-01 03:57:35","950752","15.29727242","0.0012614","97.4493","65.3543","32.9667","327.2357","0","999","5525","0.00081558","0.00023512","0","4150923","0 SPACEBEE-164","1 55091U 23001CL  24001.16499943  .00023512  00000-0  81558-3 0  9991","2 55091  97.4493  65.3543 0012614  32.9667 327.2357 15.29727242 55258","2023-001CL","55091","6854.764","94.134","485.276","467.982","0"
"GENERATED VIA SPACETRACK.ORG API","18 SPCS","55091","SPACEBEE-164","PAYLOAD","U","23001CL","2024-01-01 18:05:20","749632","15.29755975","0.0012555","97.4492","65.9441","31.0685","329.1295","0","999","5534","0.00084457","0.00024374","0","4151180","0 SPACEBEE-164","1 55091U 23001CL  24001.75371238  .00024374  00000-0  84457-3 0  9990","2 55091  97.4492  65.9441 0012555  31.0685 329.1295 15.29755975 55340","2023-001CL","55091","6854.678","94.133","485.149","467.937","0"
"GENERATED VIA SPACETRACK.ORG API","18 SPCS","55091","SPACEBEE-164","PAYLOAD","U","23001CL","2024-01-01 18:05:20","749632","15.29755975","0.0012555","97.4492","65.9441","31.0685","329.1295","0","999","5534","0.00084457","0.00024374","0","4151465","0 SPACEBEE-164","1 55091U 23001CL  24001.75371238  .00024374  00000-0  84457-3 0  9990","2 55091  97.4492  65.9441 0012555  31.0685 329.1295 15.29755975 55340","2023-001CL","55091","6854.678","94.133","485.149","467.937","0"
"GENERATED VIA SPACETRACK.ORG API","18 SPCS","55091","SPACEBEE-164","PAYLOAD","U","23001CL","2024-01-02 03:30:29","994336","15.2977987","0.0012573","97.4491","66.3376","29.4965","330.6982","0","999","5540","0.00098707","0.00028536","0","4151729","0 SPACEBEE-164","1 55091U 23001CL  24002.14618049  .00028536  00000-0  98707-3 0  9995","2 55091  97.4491  66.3376 0012573  29.4965 330.6982 15.29779870 55400","2023-001CL","55091","6854.607","94.131","485.090","467.853","0"
"GENERATED VIA SPACETRACK.ORG API","18 SPCS","55091","SPACEBEE-164","PAYLOAD","U","23001CL","2024-01-02 20:46:35","760288","15.29816578","0.001249","97.4491","67.0587","27.0661","333.1228","0","999","5551","0.00090973","0.00026316","0","4151993","0 SPACEBEE-164","1 55091U 23001CL  24002.86569167  .00026316  00000-0  90973-3 0  9991","2 55091  97.4491  67.0587 0012490  27.0661 333.1228 15.29816578 55517","2023-001CL","55091","6854.497","94.129","484.923","467.801","0"
"GENERATED VIA SPACETRACK.ORG API","18 SPCS","55091","SPACEBEE-164","PAYLOAD","U","23001CL","2024-01-03 03:03:21","133152","15.29830242","0.0012507","97.449","67.3208","25.9764","334.2101","0","999","5555","0.0009012","0.00026079","0","4152280","0 SPACEBEE-164","1 55091U 23001CL  24003.12732793  .00026079  00000-0  90120-3 0  9998","2 55091  97.4490  67.3208 0012507  25.9764 334.2101 15.29830242 55559","2023-001CL","55091","6854.456","94.128","484.894","467.748","0"
"GENERATED VIA SPACETRACK.ORG API","18 SPCS","55091","SPACEBEE-164","PAYLOAD","U","23001CL","2024-01-03 03:03:21","133152","15.29830242","0.0012507","97.449","67.3208","25.9764","334.2101","0","999","5555","0.0009012","0.00026079","0","4152560","0 SPACEBEE-164","1 55091U 23001CL  24003.12732793  .00026079  00000-0  90120-3 0  9998","2 55091  97.4490  67.3208 0012507  25.9764 334.2101 15.29830242 55559","2023-001CL","55091","6854.456","94.128","484.894","467.748","0"
"GENERATED VIA SPACETRACK.ORG API","18 SPCS","55091","SPACEBEE-164","PAYLOAD","U","23001CL","2024-01-03 20:19:24","860928","15.29865894","0.0012436","97.4492","68.0418","23.8892","336.2923","0","999","5566","0.00085583","0.00024784","0","4152812","0 SPACEBEE-164","1 55091U 23001CL  24003.84681552  .00024784  00000-0  85583-3 0  9991","2 55091  97.4492  68.0418 0012436  23.8892 336.2923 15.29865894 55669","2023-001CL","55091","6854.350","94.126","484.739","467.691","0"
"GENERATED VIA SPACETRACK.ORG API","18 SPCS","55091","SPACEBEE-164","PAYLOAD","U","23001CL","2024-01-04 02:36:09","495936","15.29880616","0.0012425","97.4492","68.3042","22.9387","337.2406","0","999","5570","0.00091837","0.00026619","0","4153368","0 SPACEBEE-164","1 55091U 23001CL  24004.10844324  .00026619  00000-0  91837-3 0  9997","2 55091  97.4492  68.3042 0012425  22.9387 337.2406 15.29880616 55703","2023-001CL","55091","6854.306","94.125","484.687","467.654","0"
"GENERATED VIA SPACETRACK.ORG API","18 SPCS","55091","SPACEBEE-164","PAYLOAD","U","23001CL","2024-01-04 16:43:49","124640","15.29909905","0.0012331","97.4493","68.8942","21.0937","339.081","0","999","5579","0.000792","0.00022955","0","4153675","0 SPACEBEE-164","1 55091U 23001CL  24004.69709635  .00022955  00000-0  79200-3 0  9995","2 55091  97.4493  68.8942 0012331  21.0937 339.0810 15.29909905 55796","2023-001CL","55091","6854.218","94.123","484.535","467.631","0"
"GENERATED VIA SPACETRACK.ORG API","18 SPCS","55091","SPACEBEE-164","PAYLOAD","U","23001CL","2024-01-04 16:43:49","124640","15.29909905","0.0012331","97.4493","68.8942","21.0937","339.081","0","999","5579","0.000792","0.00022955","0","4153685","0 SPACEBEE-164","1 55091U 23001CL  24004.69709635  .00022955  00000-0  79200-3 0  9995","2 55091  97.4493  68.8942 0012331  21.0937 339.0810 15.29909905 55796","2023-001CL","55091","6854.218","94.123","484.535","467.631","0"
"GENERATED VIA SPACETRACK.ORG API","18 SPCS","55091","SPACEBEE-164","PAYLOAD","U","23001CL","2024-01-05 09:59:49","579584","15.29946769","0.0012261","97.4492","69.6158","18.5697","341.5988","0","999","5590","0.00085832","0.00024917","0","4154254","0 SPACEBEE-164","1 55091U 23001CL  24005.41654606  .00024917  00000-0  85832-3 0  9991","2 55091  97.4492  69.6158 0012261  18.5697 341.5988 15.29946769 55905","2023-001CL","55091","6854.108","94.121","484.377","467.569","0"
"GENERATED VIA SPACETRACK.ORG API","18 SPCS","55091","SPACEBEE-164","PAYLOAD","U","23001CL","2024-01-05 17:50:43","907136","15.29959964","0.0012213","97.4495","69.9434","17.3586","342.807","0","999","5595","0.00075442","0.00021892","0","4154473","0 SPACEBEE-164","1 55091U 23001CL  24005.74356374  .00021892  00000-0  75442-3 0  9993","2 55091  97.4495  69.9434 0012213  17.3586 342.8070 15.29959964 55951","2023-001CL","55091","6854.069","94.120","484.305","467.563","0"
"GENERATED VIA SPACETRACK.ORG API","18 SPCS","55091","SPACEBEE-164","PAYLOAD","U","23001CL","2024-01-05 17:50:43","907136","15.29959964","0.0012213","97.4495","69.9434","17.3586","342.807","0","999","5595","0.00075442","0.00021892","0","4154502","0 SPACEBEE-164","1 55091U 23001CL  24005.74356374  .00021892  00000-0  75442-3 0  9993","2 55091  97.4495  69.9434 0012213  17.3586 342.8070 15.29959964 55951","2023-001CL","55091","6854.069","94.120","484.305","467.563","0"
"GENERATED VIA SPACETRACK.ORG API","18 SPCS","55091","SPACEBEE-164","PAYLOAD","U","23001CL","2024-01-06 03:15:48","633120","15.29982531","0.0012257","97.4494","70.337","15.8367","344.3254","0","999","5601","0.00087861","0.00025538","0","4155067","0 SPACEBEE-164","1 55091U 23001CL  24006.13597955  .00025538  00000-0  87861-3 0  9998","2 55091  97.4494  70.3370 0012257  15.8367 344.3254 15.29982531 56018","2023-001CL","55091","6854.001","94.119","484.267","467.466","0"
"GENERATED VIA SPACETRACK.ORG API","18 SPCS","55091","SPACEBEE-164","PAYLOAD","U","23001CL","2024-01-06 17:23:24","970848","15.30009298","0.001217","97.4495","70.9269","13.904","346.2533","0","999","5610","0.00078124","0.00022709","0","4155325","0 SPACEBEE-164","1 55091U 23001CL  24006.72459457  .00022709  00000-0  78124-3 0  9996","2 55091  97.4495  70.9269 0012170  13.9040 346.2533 15.30009298 56106","2023-001CL","55091","6853.922","94.117","484.128","467.445","0"
"GENERATED VIA SPACETRACK.ORG API","18 SPCS","55091","SPACEBEE-164","PAYLOAD","U","23001CL","2024-01-07 02:48:28","620288","15.30029005","0.0012159","97.4494","71.3205","12.5374","347.6166","0","999","5616","0.00077023","0.00022401","0","4155609","0 SPACEBEE-164","1 55091U 23001CL  24007.11699792  .00022401  00000-0  77023-3 0  9994","2 55091  97.4494  71.3205 0012159  12.5374 347.6166 15.30029005 56163","2023-001CL","55091","6853.863","94.116","484.061","467.394","0"
